[
  {
    "OBJECT_NAME": "STARLINK-3839",
    "OBJECT_ID": "22049AF",
    "EPOCH": "2025-11-11T04:34:58.677024",
    "MEAN_MOTION": 15.08844876,
    "ECCENTRICITY": 0.0001299,
    "INCLINATION": 53.2161,
    "RA_OF_ASC_NODE": 231.0826,
    "ARG_OF_PERICENTER": 83.2524,
    "MEAN_ANOMALY": 276.8616,
    "EPHEMERIS_TYPE": 0,
    "CLASSIFICATION_TYPE": "U",
    "NORAD_CAT_ID": 52480,
    "ELEMENT_SET_NO": 999,
    "REV_AT_EPOCH": 19436,
    "BSTAR": 6.8452e-05,
    "MEAN_MOTION_DOT": 8.02e-06,
    "MEAN_MOTION_DDOT": 0.0,
    "TLE_LINE1": "1 52480U 22049AF  25315.19095691  .00000802  00000+0  68452-4 0  9990",
    "TLE_LINE2": "2 52480  53.2161 231.0826 0001299  83.2524 276.8616 15.08844876194366",
    "COMMENT": "Grouped by shell and plane from TLE"
  },
  {
    "OBJECT_NAME": "STARLINK-3887",
    "OBJECT_ID": "22049AK",
    "EPOCH": "2025-11-11T04:29:41.595072",
    "MEAN_MOTION": 15.08846124,
    "ECCENTRICITY": 0.0001449,
    "INCLINATION": 53.2177,
    "RA_OF_ASC_NODE": 231.1018,
    "ARG_OF_PERICENTER": 82.1145,
    "MEAN_ANOMALY": 278.0012,
    "EPHEMERIS_TYPE": 0,
    "CLASSIFICATION_TYPE": "U",
    "NORAD_CAT_ID": 52484,
    "ELEMENT_SET_NO": 999,
    "REV_AT_EPOCH": 19436,
    "BSTAR": 4.5125e-05,
    "MEAN_MOTION_DOT": 4.3e-06,
    "MEAN_MOTION_DDOT": 0.0,
    "TLE_LINE1": "1 52484U 22049AK  25315.18728698  .00000430  00000+0  45125-4 0  9992",
    "TLE_LINE2": "2 52484  53.2177 231.1018 0001449  82.1145 278.0012 15.08846124194367",
    "COMMENT": "Grouped by shell and plane from TLE"
  },
  {
    "OBJECT_NAME": "STARLINK-3918",
    "OBJECT_ID": "22049AM",
    "EPOCH": "2025-11-11T04:19:05.135520",
    "MEAN_MOTION": 15.08847204,
    "ECCENTRICITY": 0.0001923,
    "INCLINATION": 53.2173,
    "RA_OF_ASC_NODE": 231.132,
    "ARG_OF_PERICENTER": 94.3717,
    "MEAN_ANOMALY": 265.7495,
    "EPHEMERIS_TYPE": 0,
    "CLASSIFICATION_TYPE": "U",
    "NORAD_CAT_ID": 52486,
    "ELEMENT_SET_NO": 999,
    "REV_AT_EPOCH": 19436,
    "BSTAR": 0.00033853,
    "MEAN_MOTION_DOT": 5.105e-05,
    "MEAN_MOTION_DDOT": 0.0,
    "TLE_LINE1": "1 52486U 22049AM  25315.17992055  .00005105  00000+0  33853-3 0  9991",
    "TLE_LINE2": "2 52486  53.2173 231.1320 0001923  94.3717 265.7495 15.08847204194366",
    "COMMENT": "Grouped by shell and plane from TLE"
  },
  {
    "OBJECT_NAME": "STARLINK-3892",
    "OBJECT_ID": "22049AP",
    "EPOCH": "2025-11-11T04:13:45.531552",
    "MEAN_MOTION": 15.08860539,
    "ECCENTRICITY": 0.0001419,
    "INCLINATION": 53.2168,
    "RA_OF_ASC_NODE": 231.1461,
    "ARG_OF_PERICENTER": 99.4307,
    "MEAN_ANOMALY": 260.6846,
    "EPHEMERIS_TYPE": 0,
    "CLASSIFICATION_TYPE": "U",
    "NORAD_CAT_ID": 52488,
    "ELEMENT_SET_NO": 999,
    "REV_AT_EPOCH": 19436,
    "BSTAR": 0.00016869999999999998,
    "MEAN_MOTION_DOT": 2.399e-05,
    "MEAN_MOTION_DDOT": 0.0,
    "TLE_LINE1": "1 52488U 22049AP  25315.17622143  .00002399  00000+0  16870-3 0  9993",
    "TLE_LINE2": "2 52488  53.2168 231.1461 0001419  99.4307 260.6846 15.08860539194369",
    "COMMENT": "Grouped by shell and plane from TLE"
  },
  {
    "OBJECT_NAME": "STARLINK-3923",
    "OBJECT_ID": "22049AQ",
    "EPOCH": "2025-11-11T01:13:35.658624",
    "MEAN_MOTION": 15.08858788,
    "ECCENTRICITY": 0.0001281,
    "INCLINATION": 53.2175,
    "RA_OF_ASC_NODE": 231.7135,
    "ARG_OF_PERICENTER": 84.9576,
    "MEAN_ANOMALY": 275.1563,
    "EPHEMERIS_TYPE": 0,
    "CLASSIFICATION_TYPE": "U",
    "NORAD_CAT_ID": 52489,
    "ELEMENT_SET_NO": 999,
    "REV_AT_EPOCH": 19434,
    "BSTAR": 0.00021169,
    "MEAN_MOTION_DOT": 3.084e-05,
    "MEAN_MOTION_DDOT": 0.0,
    "TLE_LINE1": "1 52489U 22049AQ  25315.05110716  .00003084  00000+0  21169-3 0  9998",
    "TLE_LINE2": "2 52489  53.2175 231.7135 0001281  84.9576 275.1563 15.08858788194344",
    "COMMENT": "Grouped by shell and plane from TLE"
  },
  {
    "OBJECT_NAME": "STARLINK-4053",
    "OBJECT_ID": "22101K",
    "EPOCH": "2025-11-11T04:47:32.786592",
    "MEAN_MOTION": 15.08853122,
    "ECCENTRICITY": 0.0001375,
    "INCLINATION": 53.2153,
    "RA_OF_ASC_NODE": 235.9649,
    "ARG_OF_PERICENTER": 94.6788,
    "MEAN_ANOMALY": 265.4361,
    "EPHEMERIS_TYPE": 0,
    "CLASSIFICATION_TYPE": "U",
    "NORAD_CAT_ID": 53536,
    "ELEMENT_SET_NO": 999,
    "REV_AT_EPOCH": 17841,
    "BSTAR": 0.00012273,
    "MEAN_MOTION_DOT": 1.666e-05,
    "MEAN_MOTION_DDOT": 0.0,
    "TLE_LINE1": "1 53536U 22101K   25315.19968503  .00001666  00000+0  12273-3 0  9991",
    "TLE_LINE2": "2 53536  53.2153 235.9649 0001375  94.6788 265.4361 15.08853122178412",
    "COMMENT": "Grouped by shell and plane from TLE"
  },
  {
    "OBJECT_NAME": "STARLINK-4118",
    "OBJECT_ID": "22101M",
    "EPOCH": "2025-11-11T01:42:05.696064",
    "MEAN_MOTION": 15.08842545,
    "ECCENTRICITY": 0.0001555,
    "INCLINATION": 53.2165,
    "RA_OF_ASC_NODE": 236.6208,
    "ARG_OF_PERICENTER": 92.9449,
    "MEAN_ANOMALY": 267.1722,
    "EPHEMERIS_TYPE": 0,
    "CLASSIFICATION_TYPE": "U",
    "NORAD_CAT_ID": 53538,
    "ELEMENT_SET_NO": 999,
    "REV_AT_EPOCH": 17908,
    "BSTAR": 0.00019844,
    "MEAN_MOTION_DOT": 2.872e-05,
    "MEAN_MOTION_DDOT": 0.0,
    "TLE_LINE1": "1 53538U 22101M   25315.07089926  .00002872  00000+0  19844-3 0  9994",
    "TLE_LINE2": "2 53538  53.2165 236.6208 0001555  92.9449 267.1722 15.08842545179082",
    "COMMENT": "Grouped by shell and plane from TLE"
  },
  {
    "OBJECT_NAME": "STARLINK-4486",
    "OBJECT_ID": "22101P",
    "EPOCH": "2025-11-11T04:01:20.739360",
    "MEAN_MOTION": 15.08824466,
    "ECCENTRICITY": 0.0001757,
    "INCLINATION": 53.2174,
    "RA_OF_ASC_NODE": 236.5465,
    "ARG_OF_PERICENTER": 90.3339,
    "MEAN_ANOMALY": 269.7855,
    "EPHEMERIS_TYPE": 0,
    "CLASSIFICATION_TYPE": "U",
    "NORAD_CAT_ID": 53540,
    "ELEMENT_SET_NO": 999,
    "REV_AT_EPOCH": 17909,
    "BSTAR": 4.2621e-05,
    "MEAN_MOTION_DOT": 3.9e-06,
    "MEAN_MOTION_DDOT": 0.0,
    "TLE_LINE1": "1 53540U 22101P   25315.16760115  .00000390  00000+0  42621-4 0  9996",
    "TLE_LINE2": "2 53540  53.2174 236.5465 0001757  90.3339 269.7855 15.08824466179091",
    "COMMENT": "Grouped by shell and plane from TLE"
  },
  {
    "OBJECT_NAME": "STARLINK-4489",
    "OBJECT_ID": "22101R",
    "EPOCH": "2025-11-11T04:36:57.070080",
    "MEAN_MOTION": 15.08853991,
    "ECCENTRICITY": 0.0001365,
    "INCLINATION": 53.2173,
    "RA_OF_ASC_NODE": 236.0779,
    "ARG_OF_PERICENTER": 89.3945,
    "MEAN_ANOMALY": 270.7204,
    "EPHEMERIS_TYPE": 0,
    "CLASSIFICATION_TYPE": "U",
    "NORAD_CAT_ID": 53542,
    "ELEMENT_SET_NO": 999,
    "REV_AT_EPOCH": 17910,
    "BSTAR": 0.00022647000000000002,
    "MEAN_MOTION_DOT": 3.32e-05,
    "MEAN_MOTION_DDOT": 0.0,
    "TLE_LINE1": "1 53542U 22101R   25315.19232720  .00003320  00000+0  22647-3 0  9998",
    "TLE_LINE2": "2 53542  53.2173 236.0779 0001365  89.3945 270.7204 15.08853991179108",
    "COMMENT": "Grouped by shell and plane from TLE"
  },
  {
    "OBJECT_NAME": "STARLINK-4297",
    "OBJECT_ID": "22101S",
    "EPOCH": "2025-11-11T06:33:33.362784",
    "MEAN_MOTION": 15.08876079,
    "ECCENTRICITY": 0.0001451,
    "INCLINATION": 53.2158,
    "RA_OF_ASC_NODE": 235.781,
    "ARG_OF_PERICENTER": 83.9131,
    "MEAN_ANOMALY": 276.2027,
    "EPHEMERIS_TYPE": 0,
    "CLASSIFICATION_TYPE": "U",
    "NORAD_CAT_ID": 53543,
    "ELEMENT_SET_NO": 999,
    "REV_AT_EPOCH": 17911,
    "BSTAR": 0.0012103,
    "MEAN_MOTION_DOT": 0.00019045,
    "MEAN_MOTION_DDOT": 0.0,
    "TLE_LINE1": "1 53543U 22101S   25315.27330281  .00019045  00000+0  12103-2 0  9995",
    "TLE_LINE2": "2 53543  53.2158 235.7810 0001451  83.9131 276.2027 15.08876079179114",
    "COMMENT": "Grouped by shell and plane from TLE"
  },
  {
    "OBJECT_NAME": "STARLINK-4303",
    "OBJECT_ID": "22101T",
    "EPOCH": "2025-11-11T04:26:21.055488",
    "MEAN_MOTION": 15.08856451,
    "ECCENTRICITY": 0.0001408,
    "INCLINATION": 53.2175,
    "RA_OF_ASC_NODE": 236.1084,
    "ARG_OF_PERICENTER": 85.4012,
    "MEAN_ANOMALY": 274.7141,
    "EPHEMERIS_TYPE": 0,
    "CLASSIFICATION_TYPE": "U",
    "NORAD_CAT_ID": 53544,
    "ELEMENT_SET_NO": 999,
    "REV_AT_EPOCH": 17908,
    "BSTAR": 0.00025645,
    "MEAN_MOTION_DOT": 3.798e-05,
    "MEAN_MOTION_DDOT": 0.0,
    "TLE_LINE1": "1 53544U 22101T   25315.18496592  .00003798  00000+0  25645-3 0  9998",
    "TLE_LINE2": "2 53544  53.2175 236.1084 0001408  85.4012 274.7141 15.08856451179087",
    "COMMENT": "Grouped by shell and plane from TLE"
  },
  {
    "OBJECT_NAME": "STARLINK-4475",
    "OBJECT_ID": "22101U",
    "EPOCH": "2025-11-11T06:17:39.048000",
    "MEAN_MOTION": 15.08853991,
    "ECCENTRICITY": 0.0001329,
    "INCLINATION": 53.216,
    "RA_OF_ASC_NODE": 235.7641,
    "ARG_OF_PERICENTER": 86.4131,
    "MEAN_ANOMALY": 273.7014,
    "EPHEMERIS_TYPE": 0,
    "CLASSIFICATION_TYPE": "U",
    "NORAD_CAT_ID": 53545,
    "ELEMENT_SET_NO": 999,
    "REV_AT_EPOCH": 17911,
    "BSTAR": 0.00045256999999999996,
    "MEAN_MOTION_DOT": 6.925e-05,
    "MEAN_MOTION_DDOT": 0.0,
    "TLE_LINE1": "1 53545U 22101U   25315.26225750  .00006925  00000+0  45257-3 0  9990",
    "TLE_LINE2": "2 53545  53.2160 235.7641 0001329  86.4131 273.7014 15.08853991179119",
    "COMMENT": "Grouped by shell and plane from TLE"
  },
  {
    "OBJECT_NAME": "STARLINK-4474",
    "OBJECT_ID": "22101W",
    "EPOCH": "2025-11-11T02:56:16.393344",
    "MEAN_MOTION": 15.08847935,
    "ECCENTRICITY": 0.0001471,
    "INCLINATION": 53.218,
    "RA_OF_ASC_NODE": 236.3899,
    "ARG_OF_PERICENTER": 87.4956,
    "MEAN_ANOMALY": 272.6205,
    "EPHEMERIS_TYPE": 0,
    "CLASSIFICATION_TYPE": "U",
    "NORAD_CAT_ID": 53547,
    "ELEMENT_SET_NO": 999,
    "REV_AT_EPOCH": 17907,
    "BSTAR": 0.0001237,
    "MEAN_MOTION_DOT": 1.682e-05,
    "MEAN_MOTION_DDOT": 0.0,
    "TLE_LINE1": "1 53547U 22101W   25315.12241196  .00001682  00000+0  12370-3 0  9994",
    "TLE_LINE2": "2 53547  53.2180 236.3899 0001471  87.4956 272.6205 15.08847935179075",
    "COMMENT": "Grouped by shell and plane from TLE"
  }
]